[{"OBJECT_NAME":"STARLINK-6098","OBJECT_ID":"2023-083AG","EPOCH":"2025-07-29T05:48:57.441600","MEAN_MOTION":15.02533565,"ECCENTRICITY":0.0001333,"INCLINATION":43.0025,"RA_OF_ASC_NODE":203.311,"ARG_OF_PERICENTER":277.8686,"MEAN_ANOMALY":82.2005,"EPHEMERIS_TYPE":0,"CLASSIFICATION_TYPE":"U","NORAD_CAT_ID":56906,"ELEMENT_SET_NO":999,"REV_AT_EPOCH":11820,"BSTAR":7.5939e-6,"MEAN_MOTION_DOT":-1.01e-6,"MEAN_MOTION_DDOT":0},{"OBJECT_NAME":"STARLINK-6110","OBJECT_ID":"2023-083AH","EPOCH":"2025-07-29T09:02:00.572064","MEAN_MOTION":15.02534313,"ECCENTRICITY":0.0001403,"INCLINATION":43.0023,"RA_OF_ASC_NODE":202.6004,"ARG_OF_PERICENTER":273.2001,"MEAN_ANOMALY":86.8681,"EPHEMERIS_TYPE":0,"CLASSIFICATION_TYPE":"U","NORAD_CAT_ID":56907,"ELEMENT_SET_NO":999,"REV_AT_EPOCH":11833,"BSTAR":-4.0445e-7,"MEAN_MOTION_DOT":-2.09e-6,"MEAN_MOTION_DDOT":0},{"OBJECT_NAME":"STARLINK-6186","OBJECT_ID":"2023-083AJ","EPOCH":"2025-07-29T00:47:23.043840","MEAN_MOTION":15.02539535,"ECCENTRICITY":0.0001369,"INCLINATION":43.0018,"RA_OF_ASC_NODE":204.3232,"ARG_OF_PERICENTER":281.9953,"MEAN_ANOMALY":78.0736,"EPHEMERIS_TYPE":0,"CLASSIFICATION_TYPE":"U","NORAD_CAT_ID":56908,"ELEMENT_SET_NO":999,"REV_AT_EPOCH":11817,"BSTAR":-6.1115e-5,"MEAN_MOTION_DOT":-1.029e-5,"MEAN_MOTION_DDOT":0},{"OBJECT_NAME":"STARLINK-5999","OBJECT_ID":"2023-083AK","EPOCH":"2025-07-29T10:42:32.014368","MEAN_MOTION":15.02535334,"ECCENTRICITY":0.0001317,"INCLINATION":43.0025,"RA_OF_ASC_NODE":202.261,"ARG_OF_PERICENTER":281.3599,"MEAN_ANOMALY":78.7095,"EPHEMERIS_TYPE":0,"CLASSIFICATION_TYPE":"U","NORAD_CAT_ID":56909,"ELEMENT_SET_NO":999,"REV_AT_EPOCH":11834,"BSTAR":1.1472e-5,"MEAN_MOTION_DOT":-4.9e-7,"MEAN_MOTION_DDOT":0},{"OBJECT_NAME":"STARLINK-6179","OBJECT_ID":"2023-083AL","EPOCH":"2025-07-29T07:02:18.396672","MEAN_MOTION":15.0253496,"ECCENTRICITY":0.0001378,"INCLINATION":43.0024,"RA_OF_ASC_NODE":202.8355,"ARG_OF_PERICENTER":269.1192,"MEAN_ANOMALY":90.9492,"EPHEMERIS_TYPE":0,"CLASSIFICATION_TYPE":"U","NORAD_CAT_ID":56910,"ELEMENT_SET_NO":999,"REV_AT_EPOCH":11821,"BSTAR":2.3279e-5,"MEAN_MOTION_DOT":1.11e-6,"MEAN_MOTION_DDOT":0},{"OBJECT_NAME":"STARLINK-6116","OBJECT_ID":"2023-083AM","EPOCH":"2025-07-29T10:31:20.523072","MEAN_MOTION":15.02536322,"ECCENTRICITY":0.0001256,"INCLINATION":43.0025,"RA_OF_ASC_NODE":202.2018,"ARG_OF_PERICENTER":287.0831,"MEAN_ANOMALY":72.9874,"EPHEMERIS_TYPE":0,"CLASSIFICATION_TYPE":"U","NORAD_CAT_ID":56911,"ELEMENT_SET_NO":999,"REV_AT_EPOCH":11823,"BSTAR":5.8154e-5,"MEAN_MOTION_DOT":5.82e-6,"MEAN_MOTION_DDOT":0},{"OBJECT_NAME":"STARLINK-5805","OBJECT_ID":"2023-083AN","EPOCH":"2025-07-29T06:55:54.722784","MEAN_MOTION":15.02535568,"ECCENTRICITY":0.0001259,"INCLINATION":43.002,"RA_OF_ASC_NODE":202.8015,"ARG_OF_PERICENTER":279.4964,"MEAN_ANOMALY":80.5736,"EPHEMERIS_TYPE":0,"CLASSIFICATION_TYPE":"U","NORAD_CAT_ID":56912,"ELEMENT_SET_NO":999,"REV_AT_EPOCH":11821,"BSTAR":3.7853e-5,"MEAN_MOTION_DOT":3.08e-6,"MEAN_MOTION_DDOT":0},{"OBJECT_NAME":"STARLINK-5950","OBJECT_ID":"2023-083AP","EPOCH":"2025-07-29T10:26:32.870688","MEAN_MOTION":15.02535702,"ECCENTRICITY":0.0001347,"INCLINATION":43.003,"RA_OF_ASC_NODE":202.1758,"ARG_OF_PERICENTER":279.7945,"MEAN_ANOMALY":80.2745,"EPHEMERIS_TYPE":0,"CLASSIFICATION_TYPE":"U","NORAD_CAT_ID":56913,"ELEMENT_SET_NO":999,"REV_AT_EPOCH":11823,"BSTAR":1.0956e-5,"MEAN_MOTION_DOT":-5.6e-7,"MEAN_MOTION_DDOT":0},{"OBJECT_NAME":"STARLINK-5961","OBJECT_ID":"2023-083AQ","EPOCH":"2025-07-29T11:33:30.467232","MEAN_MOTION":15.02534349,"ECCENTRICITY":0.0001316,"INCLINATION":43.0028,"RA_OF_ASC_NODE":201.6646,"ARG_OF_PERICENTER":290.8946,"MEAN_ANOMALY":69.1756,"EPHEMERIS_TYPE":0,"CLASSIFICATION_TYPE":"U","NORAD_CAT_ID":56914,"ELEMENT_SET_NO":999,"REV_AT_EPOCH":11744,"BSTAR":5.9531e-6,"MEAN_MOTION_DOT":-1.23e-6,"MEAN_MOTION_DDOT":0},{"OBJECT_NAME":"STARLINK-5965","OBJECT_ID":"2023-083AR","EPOCH":"2025-07-29T10:16:57.421632","MEAN_MOTION":15.02536464,"ECCENTRICITY":0.0001137,"INCLINATION":43.0028,"RA_OF_ASC_NODE":202.1276,"ARG_OF_PERICENTER":277.6435,"MEAN_ANOMALY":82.4278,"EPHEMERIS_TYPE":0,"CLASSIFICATION_TYPE":"U","NORAD_CAT_ID":56915,"ELEMENT_SET_NO":999,"REV_AT_EPOCH":11823,"BSTAR":4.4022e-5,"MEAN_MOTION_DOT":3.91e-6,"MEAN_MOTION_DDOT":0},{"OBJECT_NAME":"STARLINK-5973","OBJECT_ID":"2023-083AS","EPOCH":"2025-07-29T15:56:44.620512","MEAN_MOTION":15.02525599,"ECCENTRICITY":0.0001436,"INCLINATION":43.0026,"RA_OF_ASC_NODE":200.4589,"ARG_OF_PERICENTER":263.8233,"MEAN_ANOMALY":96.2445,"EPHEMERIS_TYPE":0,"CLASSIFICATION_TYPE":"U","NORAD_CAT_ID":56916,"ELEMENT_SET_NO":999,"REV_AT_EPOCH":11747,"BSTAR":-6.2424e-5,"MEAN_MOTION_DOT":-1.047e-5,"MEAN_MOTION_DDOT":0},{"OBJECT_NAME":"STARLINK-5971","OBJECT_ID":"2023-083AT","EPOCH":"2025-07-29T06:51:07.219008","MEAN_MOTION":15.02535455,"ECCENTRICITY":0.0001288,"INCLINATION":43.001,"RA_OF_ASC_NODE":202.7753,"ARG_OF_PERICENTER":288.7401,"MEAN_ANOMALY":71.3301,"EPHEMERIS_TYPE":0,"CLASSIFICATION_TYPE":"U","NORAD_CAT_ID":56917,"ELEMENT_SET_NO":999,"REV_AT_EPOCH":11821,"BSTAR":-1.091e-5,"MEAN_MOTION_DOT":-3.51e-6,"MEAN_MOTION_DDOT":0},{"OBJECT_NAME":"STARLINK-5951","OBJECT_ID":"2023-083AU","EPOCH":"2025-07-29T06:36:42.282432","MEAN_MOTION":15.02555803,"ECCENTRICITY":0.0001504,"INCLINATION":43.0037,"RA_OF_ASC_NODE":202.6984,"ARG_OF_PERICENTER":290.1058,"MEAN_ANOMALY":69.9622,"EPHEMERIS_TYPE":0,"CLASSIFICATION_TYPE":"U","NORAD_CAT_ID":56918,"ELEMENT_SET_NO":999,"REV_AT_EPOCH":11821,"BSTAR":0.00022357,"MEAN_MOTION_DOT":2.819e-5,"MEAN_MOTION_DDOT":0},{"OBJECT_NAME":"STARLINK-5966","OBJECT_ID":"2023-083AV","EPOCH":"2025-07-29T06:43:07.889088","MEAN_MOTION":15.02534491,"ECCENTRICITY":0.0001549,"INCLINATION":43.0018,"RA_OF_ASC_NODE":202.7339,"ARG_OF_PERICENTER":286.1183,"MEAN_ANOMALY":73.9489,"EPHEMERIS_TYPE":0,"CLASSIFICATION_TYPE":"U","NORAD_CAT_ID":56919,"ELEMENT_SET_NO":999,"REV_AT_EPOCH":11821,"BSTAR":6.0919e-5,"MEAN_MOTION_DOT":6.19e-6,"MEAN_MOTION_DDOT":0},{"OBJECT_NAME":"STARLINK-5960","OBJECT_ID":"2023-083AW","EPOCH":"2025-07-29T16:01:31.282752","MEAN_MOTION":15.02571822,"ECCENTRICITY":0.0001391,"INCLINATION":43.0033,"RA_OF_ASC_NODE":200.4774,"ARG_OF_PERICENTER":280.7464,"MEAN_ANOMALY":79.3222,"EPHEMERIS_TYPE":0,"CLASSIFICATION_TYPE":"U","NORAD_CAT_ID":56920,"ELEMENT_SET_NO":999,"REV_AT_EPOCH":11747,"BSTAR":-0.0005812,"MEAN_MOTION_DOT":-8.053e-5,"MEAN_MOTION_DDOT":0},{"OBJECT_NAME":"STARLINK-5958","OBJECT_ID":"2023-083AX","EPOCH":"2025-07-29T11:28:42.664512","MEAN_MOTION":15.02535697,"ECCENTRICITY":0.0001269,"INCLINATION":43.0027,"RA_OF_ASC_NODE":201.6386,"ARG_OF_PERICENTER":281.9027,"MEAN_ANOMALY":78.1673,"EPHEMERIS_TYPE":0,"CLASSIFICATION_TYPE":"U","NORAD_CAT_ID":56921,"ELEMENT_SET_NO":999,"REV_AT_EPOCH":11824,"BSTAR":5.4017e-5,"MEAN_MOTION_DOT":5.26e-6,"MEAN_MOTION_DDOT":0},{"OBJECT_NAME":"STARLINK-5937","OBJECT_ID":"2023-083AY","EPOCH":"2025-07-29T15:42:20.297376","MEAN_MOTION":15.02547474,"ECCENTRICITY":0.0001421,"INCLINATION":43.0023,"RA_OF_ASC_NODE":200.3842,"ARG_OF_PERICENTER":269.4381,"MEAN_ANOMALY":90.6298,"EPHEMERIS_TYPE":0,"CLASSIFICATION_TYPE":"U","NORAD_CAT_ID":56922,"ELEMENT_SET_NO":999,"REV_AT_EPOCH":11747,"BSTAR":6.117e-5,"MEAN_MOTION_DOT":6.23e-6,"MEAN_MOTION_DDOT":0},{"OBJECT_NAME":"STARLINK-5952","OBJECT_ID":"2023-083AZ","EPOCH":"2025-07-29T09:43:23.935296","MEAN_MOTION":15.02531726,"ECCENTRICITY":0.0001263,"INCLINATION":43.0039,"RA_OF_ASC_NODE":201.9515,"ARG_OF_PERICENTER":274.4815,"MEAN_ANOMALY":85.5883,"EPHEMERIS_TYPE":0,"CLASSIFICATION_TYPE":"U","NORAD_CAT_ID":56923,"ELEMENT_SET_NO":999,"REV_AT_EPOCH":11823,"BSTAR":-8.5857e-6,"MEAN_MOTION_DOT":-3.2e-6,"MEAN_MOTION_DDOT":0},{"OBJECT_NAME":"STARLINK-5731","OBJECT_ID":"2023-083BA","EPOCH":"2025-07-29T10:56:45.848544","MEAN_MOTION":15.0253536,"ECCENTRICITY":0.000127,"INCLINATION":43.0027,"RA_OF_ASC_NODE":201.4735,"ARG_OF_PERICENTER":271.2476,"MEAN_ANOMALY":88.8221,"EPHEMERIS_TYPE":0,"CLASSIFICATION_TYPE":"U","NORAD_CAT_ID":56924,"ELEMENT_SET_NO":999,"REV_AT_EPOCH":11835,"BSTAR":7.7609e-5,"MEAN_MOTION_DOT":8.45e-6,"MEAN_MOTION_DDOT":0},{"OBJECT_NAME":"STARLINK-5733","OBJECT_ID":"2023-083BB","EPOCH":"2025-07-29T15:47:09.085056","MEAN_MOTION":15.02538163,"ECCENTRICITY":0.000117,"INCLINATION":43.002,"RA_OF_ASC_NODE":200.4078,"ARG_OF_PERICENTER":273.9964,"MEAN_ANOMALY":86.0745,"EPHEMERIS_TYPE":0,"CLASSIFICATION_TYPE":"U","NORAD_CAT_ID":56925,"ELEMENT_SET_NO":999,"REV_AT_EPOCH":11747,"BSTAR":6.9689e-5,"MEAN_MOTION_DOT":7.38e-6,"MEAN_MOTION_DDOT":0},{"OBJECT_NAME":"STARLINK-5746","OBJECT_ID":"2023-083BC","EPOCH":"2025-07-29T11:04:44.075136","MEAN_MOTION":15.02538251,"ECCENTRICITY":0.0001258,"INCLINATION":43.0028,"RA_OF_ASC_NODE":201.5138,"ARG_OF_PERICENTER":282.5761,"MEAN_ANOMALY":77.4941,"EPHEMERIS_TYPE":0,"CLASSIFICATION_TYPE":"U","NORAD_CAT_ID":56926,"ELEMENT_SET_NO":999,"REV_AT_EPOCH":11824,"BSTAR":6.3747e-5,"MEAN_MOTION_DOT":6.58e-6,"MEAN_MOTION_DDOT":0},{"OBJECT_NAME":"STARLINK-5808","OBJECT_ID":"2023-083BD","EPOCH":"2025-07-29T03:18:35.202816","MEAN_MOTION":15.02543599,"ECCENTRICITY":0.0001098,"INCLINATION":43.0034,"RA_OF_ASC_NODE":113.9307,"ARG_OF_PERICENTER":271.2605,"MEAN_ANOMALY":88.8111,"EPHEMERIS_TYPE":0,"CLASSIFICATION_TYPE":"U","NORAD_CAT_ID":56927,"ELEMENT_SET_NO":999,"REV_AT_EPOCH":11922,"BSTAR":5.0651e-5,"MEAN_MOTION_DOT":4.81e-6,"MEAN_MOTION_DDOT":0},{"OBJECT_NAME":"STARLINK-5850","OBJECT_ID":"2023-088B","EPOCH":"2025-07-29T10:46:08.786784","MEAN_MOTION":15.02532944,"ECCENTRICITY":0.0001471,"INCLINATION":43.0023,"RA_OF_ASC_NODE":240.9256,"ARG_OF_PERICENTER":278.8656,"MEAN_ANOMALY":81.202,"EPHEMERIS_TYPE":0,"CLASSIFICATION_TYPE":"U","NORAD_CAT_ID":57049,"ELEMENT_SET_NO":999,"REV_AT_EPOCH":11697,"BSTAR":2.7035e-6,"MEAN_MOTION_DOT":-1.67e-6,"MEAN_MOTION_DDOT":0}]
